TEVEL2-3                
1 63218U 25052J   26068.64540225  .00020365  00000+0  69446-3 0  9991
2 63218  97.3994 324.7775 0004761 105.7353 254.4413 15.30377031 54855
STARLINK-34026          
1 63842U 25093G   26068.38963381  .00034641  00000+0  12629-2 0  9994
2 63842  42.9984  79.8270 0001259 273.7064  86.3644 15.27569695 47704
